NORAD_CAT_ID,OBJECT_NAME,OBJECT_TYPE,EPOCH,MEAN_MOTION,ECCENTRICITY,INCLINATION,RA_OF_ASC_NODE,ARG_OF_PERICENTER,MEAN_ANOMALY,BSTAR,MEAN_MOTION_DOT,MEAN_MOTION_DDOT,TLE_LINE0,TLE_LINE1,TLE_LINE2,SEMIMAJOR_AXIS,PERIOD,APOGEE,PERIGEE,DECAYED
51114.0,STARLINK-3375,PAYLOAD,2022-06-25 10:07:18,15.08831567,0.0001779,53.2183,244.1798,43.595,316.5183,1.8433e-05,5e-08,0.0,0 STARLINK-3375,1 51114U 22005L   22176.42173763  .00000005  00000-0  18433-4 0  9990,2 51114  53.2183 244.1798 0001779  43.5950 316.5183 15.08831567 25694,6917.906,95.438,541.002,538.54,0.0
51114.0,STARLINK-3375,PAYLOAD,2022-06-26 11:33:27,15.08839057,0.0001889,53.2183,239.422,44.2884,315.8259,0.000146,2.036e-05,0.0,0 STARLINK-3375,1 51114U 22005L   22177.48157176  .00002036  00000-0  14600-3 0  9994,2 51114  53.2183 239.4220 0001889  44.2884 315.8259 15.08839057 25842,6917.8830000000025,95.438,541.055,538.441,0.0
51114.0,STARLINK-3375,PAYLOAD,2022-06-26 21:05:46,15.08842877,0.0001999,53.2183,237.6375,42.7208,317.3939,0.00014403,2.005e-05,0.0,0 STARLINK-3375,1 51114U 22005L   22177.87900942  .00002005  00000-0  14403-3 0  9991,2 51114  53.2183 237.6375 0001999  42.7208 317.3939 15.08842877 24809,6917.871999999999,95.437,541.119,538.354,0.0
51114.0,STARLINK-3375,PAYLOAD,2022-06-27 11:24:15,15.08836989,0.000206,53.2186,234.9622,43.9398,316.1758,2.7077e-05,1.43e-06,0.0,0 STARLINK-3375,1 51114U 22005L   22178.47517760  .00000143  00000-0  27077-4 0  9993,2 51114  53.2186 234.9622 0002060  43.9398 316.1758 15.08836989 26007,6917.89,95.438,541.18,538.33,0.0
51114.0,STARLINK-3375,PAYLOAD,2022-06-27 20:56:33,15.08842119,0.0002151,53.2188,233.1778,44.3449,315.7715,2.8718e-05,1.69e-06,0.0,0 STARLINK-3375,1 51114U 22005L   22178.87261393  .00000169  00000-0  28718-4 0  9996,2 51114  53.2188 233.1778 0002151  44.3449 315.7715 15.08842119 24957,6917.874,95.437,541.227,538.251,0.0
51114.0,STARLINK-3375,PAYLOAD,2022-06-28 09:39:39,15.08831888,0.0002047,53.2187,230.7987,48.4,311.7167,-0.0001101,-2.04e-05,0.0,0 STARLINK-3375,1 51114U 22005L   22179.40254548 -.00002040  00000-0 -11010-3 0  9998,2 51114  53.2187 230.7987 0002047  48.4000 311.7167 15.08831888 26144,6917.905,95.438,541.186,538.354,0.0
51114.0,STARLINK-3375,PAYLOAD,2022-06-28 12:50:26,15.08831029,0.0002022,53.2185,230.2038,48.4078,311.7088,-0.00011345,-2.093e-05,0.0,0 STARLINK-3375,1 51114U 22005L   22179.53502664 -.00002093  00000-0 -11345-3 0  9996,2 51114  53.2185 230.2038 0002022  48.4078 311.7088 15.08831029 25050,6917.908,95.438,541.172,538.374,0.0
51114.0,STARLINK-3375,PAYLOAD,2022-06-29 12:41:13,15.08830533,0.0001981,53.2181,225.7438,43.8178,316.2971,-2.1746e-05,-6.34e-06,0.0,0 STARLINK-3375,1 51114U 22005L   22180.52862826 -.00000634  00000-0 -21746-4 0  9992,2 51114  53.2181 225.7438 0001981  43.8178 316.2971 15.08830533 25209,6917.909000000002,95.438,541.145,538.404,0.0
51114.0,STARLINK-3375,PAYLOAD,2022-06-29 20:38:09,15.0883011,0.0001992,53.2183,224.257,44.2938,315.8213,4.0158e-06,-2.24e-06,0.0,0 STARLINK-3375,1 51114U 22005L   22180.85982954 -.00000224  00000-0  40158-5 0  9996,2 51114  53.2183 224.2570 0001992  44.2938 315.8213 15.08830110 25253,6917.911,95.438,541.154,538.398,0.0
51114.0,STARLINK-3375,PAYLOAD,2022-06-30 12:32:00,15.08828214,0.0002038,53.218,221.2836,45.2734,314.8424,5.4615e-05,5.81e-06,0.0,0 STARLINK-3375,1 51114U 22005L   22181.52223309  .00000581  00000-0  54615-4 0  9990,2 51114  53.2180 221.2836 0002038  45.2734 314.8424 15.08828214 25355,6917.916,95.438,541.191,538.372,0.0
51114.0,STARLINK-3375,PAYLOAD,2022-07-01 12:22:48,15.08832943,0.0002088,53.218,216.8234,46.0438,314.0726,4.6672e-05,4.55e-06,0.0,0 STARLINK-3375,1 51114U 22005L   22182.51583590  .00000455  00000-0  46672-4 0  9995,2 51114  53.2180 216.8234 0002088  46.0438 314.0726 15.08832943 25500,6917.901999999999,95.438,541.211,538.323,0.0
51114.0,STARLINK-3375,PAYLOAD,2022-07-02 12:13:35,15.08837823,0.0002144,53.218,212.3634,47.2367,312.8805,5.0909e-05,5.22e-06,0.0,0 STARLINK-3375,1 51114U 22005L   22183.50943535  .00000522  00000-0  50909-4 0  9997,2 51114  53.2180 212.3634 0002144  47.2367 312.8805 15.08837823 26756,6917.887,95.438,541.235,538.269,0.0
51114.0,STARLINK-3375,PAYLOAD,2022-07-03 08:53:35,15.08842929,0.0002173,53.218,208.4977,48.0942,312.0235,5.3621e-05,5.65e-06,0.0,0 STARLINK-3375,1 51114U 22005L   22184.37055143  .00000565  00000-0  53621-4 0  9993,2 51114  53.2180 208.4977 0002173  48.0942 312.0235 15.08842929 25786,6917.871,95.437,541.24,538.2330000000002,0.0
51114.0,STARLINK-3375,PAYLOAD,2022-07-03 18:25:54,15.08844434,0.0002199,53.218,206.7136,48.2717,311.8463,5.7701e-05,6.3e-06,0.0,0 STARLINK-3375,1 51114U 22005L   22184.76798924  .00000630  00000-0  57701-4 0  9993,2 51114  53.2180 206.7136 0002199  48.2717 311.8463 15.08844434 25844,6917.8669999999975,95.437,541.253,538.211,0.0
51114.0,STARLINK-3375,PAYLOAD,2022-07-04 08:44:22,15.08846336,0.0002225,53.2179,204.0373,48.5342,311.5841,4.332e-05,4.01e-06,0.0,0 STARLINK-3375,1 51114U 22005L   22185.36414625  .00000401  00000-0  43320-4 0  9991,2 51114  53.2179 204.0373 0002225  48.5342 311.5841 15.08846336 25933,6917.861,95.437,541.265,538.187,0.0
51114.0,STARLINK-3375,PAYLOAD,2022-07-04 18:16:42,15.08834161,0.0002244,53.2179,202.2533,48.851000000000006,311.2675,-6.7206e-05,-1.358e-05,0.0,0 STARLINK-3375,1 51114U 22005L   22185.76159777 -.00001358  00000-0 -67206-4 0  9992,2 51114  53.2179 202.2533 0002244  48.8510 311.2675 15.08834161 25993,6917.898,95.438,541.316,538.211,0.0
51114.0,STARLINK-3375,PAYLOAD,2022-07-05 10:10:33,15.08836367,0.0002245,53.2178,199.2796,49.13399999999999,310.9846,-6.0415e-05,-1.25e-05,0.0,0 STARLINK-3375,1 51114U 22005L   22186.42399714 -.00001250  00000-0 -60415-4 0  9999,2 51114  53.2178 199.2796 0002245  49.1340 310.9846 15.08836367 26092,6917.891,95.438,541.31,538.203,0.0
51114.0,STARLINK-3375,PAYLOAD,2022-07-05 18:07:29,15.08836596,0.0002245,53.2179,197.7929,49.4113,310.7074,-5.3627e-05,-1.142e-05,0.0,0 STARLINK-3375,1 51114U 22005L   22186.75519733 -.00001142  00000-0 -53627-4 0  9997,2 51114  53.2179 197.7929 0002245  49.4113 310.7074 15.08836596 26146,6917.891,95.438,541.309,538.203,0.0
51114.0,STARLINK-3375,PAYLOAD,2022-07-06 10:01:20,15.08834077,0.0002265,53.2178,194.8194,49.5736,310.5453,6.1351e-06,-1.91e-06,0.0,0 STARLINK-3375,1 51114U 22005L   22187.41759785 -.00000191  00000-0  61351-5 0  9990,2 51114  53.2178 194.8194 0002265  49.5736 310.5453 15.08834077 26243,6917.898,95.438,541.33,538.197,0.0
51114.0,STARLINK-3375,PAYLOAD,2022-07-06 17:58:16,15.08831173,0.0002275,53.2179,193.3325,49.9289,310.1902,4.3767e-05,4.08e-06,0.0,0 STARLINK-3375,1 51114U 22005L   22187.74879970  .00000408  00000-0  43767-4 0  9995,2 51114  53.2179 193.3325 0002275  49.9289 310.1902 15.08831173 26296,6917.906999999997,95.438,541.346,538.1990000000002,0.0
51114.0,STARLINK-3375,PAYLOAD,2022-07-07 03:30:35,15.08832976,0.0002284,53.2179,191.5482,50.2452,309.8742,4.204100000000001e-05,3.81e-06,0.0,0 STARLINK-3375,1 51114U 22005L   22188.14624047  .00000381  00000-0  42041-4 0  9997,2 51114  53.2179 191.5482 0002284  50.2452 309.8742 15.08832976 27466,6917.901999999999,95.438,541.347,538.187,0.0
51114.0,STARLINK-3375,PAYLOAD,2022-07-07 09:52:07,15.08834016,0.0002312,53.2179,190.3589,50.3673,309.7523,5.0986e-05,5.23e-06,0.0,0 STARLINK-3375,1 51114U 22005L   22188.41120070  .00000523  00000-0  50986-4 0  9999,2 51114  53.2179 190.3589 0002312  50.3673 309.7523 15.08834016 26393,6917.899,95.438,541.363,538.164,0.0
51114.0,STARLINK-3375,PAYLOAD,2022-07-08 06:32:08,15.08839303,0.0002349,53.2179,186.4933,51.3815,308.7387,6.8448e-05,8.01e-06,0.0,0 STARLINK-3375,1 51114U 22005L   22189.27231890  .00000801  00000-0  68448-4 0  9998,2 51114  53.2179 186.4933 0002349  51.3815 308.7387 15.08839303 27629,6917.8830000000025,95.438,541.373,538.123,0.0
51114.0,STARLINK-3375,PAYLOAD,2022-07-08 09:42:54,15.08840142,0.0002362,53.2178,185.8985,51.2076,308.9127,7.105100000000001e-05,8.43e-06,0.0,0 STARLINK-3375,1 51114U 22005L   22189.40479835  .00000843  00000-0  71051-4 0  9996,2 51114  53.2178 185.8985 0002362  51.2076 308.9127 15.08840142 26548,6917.88,95.438,541.379,538.111,0.0
51114.0,STARLINK-3375,PAYLOAD,2022-07-09 06:22:54,15.08846432,0.0002406,53.2179,182.0331,52.5514,307.5697,9.3589e-05,1.202e-05,0.0,0 STARLINK-3375,1 51114U 22005L   22190.26591196  .00001202  00000-0  93589-4 0  9997,2 51114  53.2179 182.0331 0002406  52.5514 307.5697 15.08846432 27774,6917.861,95.437,541.39,538.061,0.0
51114.0,STARLINK-3375,PAYLOAD,2022-07-09 15:55:13,15.0884618,0.0002432,53.218,180.249,53.1046,307.0169,7.634800000000001e-05,9.27e-06,0.0,0 STARLINK-3375,1 51114U 22005L   22190.66335106  .00000927  00000-0  76348-4 0  9995,2 51114  53.2180 180.2490 0002432  53.1046 307.0169 15.08846180 26732,6917.861,95.437,541.409,538.044,0.0
51114.0,STARLINK-3375,PAYLOAD,2022-07-10 03:02:56,15.08837445,0.000248,53.2184,178.1682,56.2767,303.8461,-2.1707e-05,-6.34e-06,0.0,0 STARLINK-3375,1 51114U 22005L   22191.12703970 -.00000634  00000-0 -21707-4 0  9991,2 51114  53.2184 178.1682 0002480  56.2767 303.8461 15.08837445 27916,6917.888000000001,95.438,541.469,538.038,0.0
51114.0,STARLINK-3375,PAYLOAD,2022-07-10 09:24:28,15.08837929,0.0002476,53.2183,176.9788,55.7464,304.3762,-1.9164e-05,-5.93e-06,0.0,0 STARLINK-3375,1 51114U 22005L   22191.39199944 -.00000593  00000-0 -19164-4 0  9998,2 51114  53.2183 176.9788 0002476  55.7464 304.3762 15.08837929 26849,6917.887,95.438,541.465,538.039,0.0
51114.0,STARLINK-3375,PAYLOAD,2022-07-10 15:46:01,15.08839811,0.0002489,53.2185,175.7897,56.6076,303.5154,-3.2419e-05,-8.04e-06,0.0,0 STARLINK-3375,1 51114U 22005L   22191.65695869 -.00000804  00000-0 -32419-4 0  9997,2 51114  53.2185 175.7897 0002489  56.6076 303.5154 15.08839811 26884,6917.880999999999,95.438,541.4680000000002,538.024,0.0
